[{"OBJECT_NAME":"STARLINK-5377","OBJECT_ID":"2023-046BB","EPOCH":"2026-03-09T22:00:01.999584","MEAN_MOTION":15.10518743,"ECCENTRICITY":0.0002113,"INCLINATION":42.9998,"RA_OF_ASC_NODE":144.2164,"ARG_OF_PERICENTER":267.4994,"MEAN_ANOMALY":39.3239,"EPHEMERIS_TYPE":0,"CLASSIFICATION_TYPE":"U","NORAD_CAT_ID":56141,"ELEMENT_SET_NO":999,"REV_AT_EPOCH":577,"BSTAR":0.00020853406,"MEAN_MOTION_DOT":3.278e-5,"MEAN_MOTION_DDOT":0},{"OBJECT_NAME":"CZ-6A DEB","OBJECT_ID":"2024-140EZ","EPOCH":"2026-03-09T16:13:02.096544","MEAN_MOTION":15.06200416,"ECCENTRICITY":0.00757943,"INCLINATION":89.319,"RA_OF_ASC_NODE":303.8689,"ARG_OF_PERICENTER":93.3463,"MEAN_ANOMALY":267.6449,"EPHEMERIS_TYPE":0,"CLASSIFICATION_TYPE":"U","NORAD_CAT_ID":60774,"ELEMENT_SET_NO":999,"REV_AT_EPOCH":8499,"BSTAR":0.003121721,"MEAN_MOTION_DOT":0.00049072,"MEAN_MOTION_DDOT":0}]
